{"type": "FeatureCollection", "features": [ {"type": "Feature", "properties": {"norad_id": 30596, "name": "FENGYUN 1C DEB", "group": "fengyun-1c-debris", "lat": 69.09908300558219, "lon": -43.01490119425156, "alt_km": 875.2676036074172, "timestamp": "2025-12-07T22:37:43.357301+00:00", "meta": {"OBJECT_NAME": "FENGYUN 1C DEB", "OBJECT_ID": "1999-025AMB", "EPOCH": "2025-12-06T23:06:47.260800", "MEAN_MOTION": 14.34331847, "ECCENTRICITY": 0.02476281, "INCLINATION": 98.4124, "RA_OF_ASC_NODE": 338.8302, "ARG_OF_PERICENTER": 306.3883, "MEAN_ANOMALY": 105.7005, "EPHEMERIS_TYPE": 0, "CLASSIFICATION_TYPE": "U", "NORAD_CAT_ID": 30596, "ELEMENT_SET_NO": 999, "REV_AT_EPOCH": 98478, "BSTAR": 0.00074204031, "MEAN_MOTION_DOT": 2.893e-05, "MEAN_MOTION_DDOT": 0}, "tle": {"line1": "1 30596U 99025AMB 25340.96304700  .00002893  00000+0  74204-3 0  9992", "line2": "2 30596  98.4124 338.8302 0247628 306.3883 105.7005 14.34331847984782"}}, "geometry": {"type": "Point", "coordinates": [-43.01490119425156, 69.09908300558219]}}, {"type": "Feature", "properties": {"norad_id": 30597, "name": "FENGYUN 1C DEB", "group": "fengyun-1c-debris", "lat": 29.009832132160074, "lon": -87.24626288379147, "alt_km": 617.5514019515349, "timestamp": "2025-12-07T22:37:43.357311+00:00", "meta": {"OBJECT_NAME": "FENGYUN 1C DEB", "OBJECT_ID": "1999-025AMC", "EPOCH": "2025-12-06T06:14:51.251424", "MEAN_MOTION": 14.91478421, "ECCENTRICITY": 0.00441753, "INCLINATION": 98.9461, "RA_OF_ASC_NODE": 275.8581, "ARG_OF_PERICENTER": 184.7925, "MEAN_ANOMALY": 175.2873, "EPHEMERIS_TYPE": 0, "CLASSIFICATION_TYPE": "U", "NORAD_CAT_ID": 30597, "ELEMENT_SET_NO": 999, "REV_AT_EPOCH": 98440, "BSTAR": 0.0089639581, "MEAN_MOTION_DOT": 0.00092448, "MEAN_MOTION_DDOT": 0}, "tle": {"line1": "1 30597U 99025AMC 25340.26031541  .00092448  00000+0  89640-2 0  9990", "line2": "2 30597  98.9461 275.8581 0044175 184.7925 175.2873 14.91478421984405"}}, "geometry": {"type": "Point", "coordinates": [-87.24626288379147, 29.009832132160074]}}, {"type": "Feature", "properties": {"norad_id": 30599, "name": "FENGYUN 1C DEB", "group": "fengyun-1c-debris", "lat": -76.23051165739511, "lon": 31.846106005518415, "alt_km": 781.6240232751743, "timestamp": "2025-12-07T22:37:43.357322+00:00", "meta": {"OBJECT_NAME": "FENGYUN 1C DEB", "OBJECT_ID": "1999-025AME", "EPOCH": "2025-12-06T11:27:52.089408", "MEAN_MOTION": 14.19643972, "ECCENTRICITY": 0.0302816, "INCLINATION": 98.6031, "RA_OF_ASC_NODE": 352.2673, "ARG_OF_PERICENTER": 2.8987, "MEAN_ANOMALY": 357.3856, "EPHEMERIS_TYPE": 0, "CLASSIFICATION_TYPE": "U", "NORAD_CAT_ID": 30599, "ELEMENT_SET_NO": 999, "REV_AT_EPOCH": 97078, "BSTAR": 0.001412668, "MEAN_MOTION_DOT": 4.681e-05, "MEAN_MOTION_DDOT": 0}, "tle": {"line1": "1 30599U 99025AME 25340.47768622  .00004681  00000+0  14127-2 0  9992", "line2": "2 30599  98.6031 352.2673 0302816   2.8987 357.3856 14.19643972970781"}}, "geometry": {"type": "Point", "coordinates": [31.846106005518415, -76.23051165739511]}}, {"type": "Feature", "properties": {"norad_id": 30600, "name": "FENGYUN 1C DEB", "group": "fengyun-1c-debris", "lat": -55.91359039034417, "lon": 94.42933922026795, "alt_km": 656.8115360317715, "timestamp": "2025-12-07T22:37:43.357332+00:00", "meta": {"OBJECT_NAME": "FENGYUN 1C DEB", "OBJECT_ID": "1999-025AMF", "EPOCH": "2025-11-30T15:24:54.916992", "MEAN_MOTION": 14.07030871, "ECCENTRICITY": 0.0330604, "INCLINATION": 98.3855, "RA_OF_ASC_NODE": 280.231, "ARG_OF_PERICENTER": 282.0902, "MEAN_ANOMALY": 74.3412, "EPHEMERIS_TYPE": 0, "CLASSIFICATION_TYPE": "U", "NORAD_CAT_ID": 30600, "ELEMENT_SET_NO": 999, "REV_AT_EPOCH": 94262, "BSTAR": 0.0058342, "MEAN_MOTION_DOT": 0.00016035, "MEAN_MOTION_DDOT": 0}, "tle": {"line1": "1 30600U 99025AMF 25334.64230228  .00016035  00000+0  58342-2 0  9996", "line2": "2 30600  98.3855 280.2310 0330604 282.0902  74.3412 14.07030871942629"}}, "geometry": {"type": "Point", "coordinates": [94.42933922026795, -55.91359039034417]}}, {"type": "Feature", "properties": {"norad_id": 30602, "name": "FENGYUN 1C DEB", "group": "fengyun-1c-debris", "lat": -72.13650675115224, "lon": 45.560334630103156, "alt_km": 607.5985898965428, "timestamp": "2025-12-07T22:37:43.357342+00:00", "meta": {"OBJECT_NAME": "FENGYUN 1C DEB", "OBJECT_ID": "1999-025AMH", "EPOCH": "2025-12-07T06:02:59.909856", "MEAN_MOTION": 14.9001758, "ECCENTRICITY": 0.0008613, "INCLINATION": 99.0332, "RA_OF_ASC_NODE": 254.3503, "ARG_OF_PERICENTER": 137.2862, "MEAN_ANOMALY": 13.7349, "EPHEMERIS_TYPE": 0, "CLASSIFICATION_TYPE": "U", "NORAD_CAT_ID": 30602, "ELEMENT_SET_NO": 999, "REV_AT_EPOCH": 97723, "BSTAR": 0.011955052, "MEAN_MOTION_DOT": 0.00117282, "MEAN_MOTION_DDOT": 0}, "tle": {"line1": "1 30602U 99025AMH 25341.25208229  .00117282  00000+0  11955-1 0  9993", "line2": "2 30602  99.0332 254.3503 0008613 137.2862  13.7349 14.90017580977238"}}, "geometry": {"type": "Point", "coordinates": [45.560334630103156, -72.13650675115224]}}, {"type": "Feature", "properties": {"norad_id": 30603, "name": "FENGYUN 1C DEB", "group": "fengyun-1c-debris", "lat": -52.946187413802406, "lon": 174.05849757558582, "alt_km": 826.659015203647, "timestamp": "2025-12-07T22:37:43.357353+00:00", "meta": {"OBJECT_NAME": "FENGYUN 1C DEB", "OBJECT_ID": "1999-025AMJ", "EPOCH": "2025-12-07T00:49:16.893120", "MEAN_MOTION": 13.84094691, "ECCENTRICITY": 0.01831547, "INCLINATION": 98.4097, "RA_OF_ASC_NODE": 4.5434, "ARG_OF_PERICENTER": 220.9319, "MEAN_ANOMALY": 167.1934, "EPHEMERIS_TYPE": 0, "CLASSIFICATION_TYPE": "U", "NORAD_CAT_ID": 30603, "ELEMENT_SET_NO": 999, "REV_AT_EPOCH": 94797, "BSTAR": 0.0020251219, "MEAN_MOTION_DOT": 2.529e-05, "MEAN_MOTION_DDOT": 0}, "tle": {"line1": "1 30603U 99025AMJ 25341.03422330  .00002529  00000+0  20251-2 0  9998", "line2": "2 30603  98.4097   4.5434 0183154 220.9319 167.1934 13.84094691947971"}}, "geometry": {"type": "Point", "coordinates": [174.05849757558582, -52.946187413802406]}}, {"type": "Feature", "properties": {"norad_id": 30604, "name": "FENGYUN 1C DEB", "group": "fengyun-1c-debris", "lat": -63.48203827445764, "lon": 34.222881054831184, "alt_km": 805.6298876710416, "timestamp": "2025-12-07T22:37:43.357364+00:00", "meta": {"OBJECT_NAME": "FENGYUN 1C DEB", "OBJECT_ID": "1999-025AMK", "EPOCH": "2025-12-07T01:07:56.562816", "MEAN_MOTION": 14.23595675, "ECCENTRICITY": 0.02100478, "INCLINATION": 98.403, "RA_OF_ASC_NODE": 16.1347, "ARG_OF_PERICENTER": 23.5089, "MEAN_ANOMALY": 6.4884, "EPHEMERIS_TYPE": 0, "CLASSIFICATION_TYPE": "U", "NORAD_CAT_ID": 30604, "ELEMENT_SET_NO": 999, "REV_AT_EPOCH": 97758, "BSTAR": 0.00050177561, "MEAN_MOTION_DOT": 1.391e-05, "MEAN_MOTION_DDOT": 0}, "tle": {"line1": "1 30604U 99025AMK 25341.04718244  .00001391  00000+0  50178-3 0  9990", "line2": "2 30604  98.4030  16.1347 0210047  23.5089   6.4884 14.23595675977585"}}, "geometry": {"type": "Point", "coordinates": [34.222881054831184, -63.48203827445764]}}, {"type": "Feature", "properties": {"norad_id": 30606, "name": "FENGYUN 1C DEB", "group": "fengyun-1c-debris", "lat": 58.67312840518686, "lon": -21.296316307084098, "alt_km": 698.3271028261461, "timestamp": "2025-12-07T22:37:43.357374+00:00", "meta": {"OBJECT_NAME": "FENGYUN 1C DEB", "OBJECT_ID": "1999-025AMM", "EPOCH": "2025-12-07T07:35:38.745024", "MEAN_MOTION": 14.57579555, "ECCENTRICITY": 0.02140212, "INCLINATION": 98.0954, "RA_OF_ASC_NODE": 351.6177, "ARG_OF_PERICENTER": 154.0098, "MEAN_ANOMALY": 222.9555, "EPHEMERIS_TYPE": 0, "CLASSIFICATION_TYPE": "U", "NORAD_CAT_ID": 30606, "ELEMENT_SET_NO": 999, "REV_AT_EPOCH": 99163, "BSTAR": 0.00086910846, "MEAN_MOTION_DOT": 5.374e-05, "MEAN_MOTION_DDOT": 0}, "tle": {"line1": "1 30606U 99025AMM 25341.31642066  .00005374  00000+0  86911-3 0  9999", "line2": "2 30606  98.0954 351.6177 0214021 154.0098 222.9555 14.57579555991630"}}, "geometry": {"type": "Point", "coordinates": [-21.296316307084098, 58.67312840518686]}}, {"type": "Feature", "properties": {"norad_id": 30608, "name": "FENGYUN 1C DEB", "group": "fengyun-1c-debris", "lat": -66.28718056351245, "lon": 65.04444532349393, "alt_km": 805.9501430129867, "timestamp": "2025-12-07T22:37:43.357385+00:00", "meta": {"OBJECT_NAME": "FENGYUN 1C DEB", "OBJECT_ID": "1999-025AMP", "EPOCH": "2025-12-07T02:54:47.666592", "MEAN_MOTION": 14.28428526, "ECCENTRICITY": 0.00157861, "INCLINATION": 98.7106, "RA_OF_ASC_NODE": 43.7964, "ARG_OF_PERICENTER": 195.4663, "MEAN_ANOMALY": 194.61, "EPHEMERIS_TYPE": 0, "CLASSIFICATION_TYPE": "U", "NORAD_CAT_ID": 30608, "ELEMENT_SET_NO": 999, "REV_AT_EPOCH": 97359, "BSTAR": 0.0018639386, "MEAN_MOTION_DOT": 4.627e-05, "MEAN_MOTION_DDOT": 0}, "tle": {"line1": "1 30608U 99025AMP 25341.12138503  .00004627  00000+0  18639-2 0  9997", "line2": "2 30608  98.7106  43.7964 0015786 195.4663 194.6100 14.28428526973590"}}, "geometry": {"type": "Point", "coordinates": [65.04444532349393, -66.28718056351245]}}, {"type": "Feature", "properties": {"norad_id": 30609, "name": "FENGYUN 1C DEB", "group": "fengyun-1c-debris", "lat": 58.38334903343695, "lon": 92.95090042224003, "alt_km": 798.6139025986422, "timestamp": "2025-12-07T22:37:43.357395+00:00", "meta": {"OBJECT_NAME": "FENGYUN 1C DEB", "OBJECT_ID": "1999-025AMQ", "EPOCH": "2025-12-06T17:08:31.037568", "MEAN_MOTION": 14.11134801, "ECCENTRICITY": 0.01189523, "INCLINATION": 98.5675, "RA_OF_ASC_NODE": 257.6035, "ARG_OF_PERICENTER": 69.9172, "MEAN_ANOMALY": 291.4756, "EPHEMERIS_TYPE": 0, "CLASSIFICATION_TYPE": "U", "NORAD_CAT_ID": 30609, "ELEMENT_SET_NO": 999, "REV_AT_EPOCH": 95643, "BSTAR": 0.0036904109, "MEAN_MOTION_DOT": 7.069e-05, "MEAN_MOTION_DDOT": 0}, "tle": {"line1": "1 30609U 99025AMQ 25340.71424812  .00007069  00000+0  36904-2 0  9991", "line2": "2 30609  98.5675 257.6035 0118952  69.9172 291.4756 14.11134801956433"}}, "geometry": {"type": "Point", "coordinates": [92.95090042224003, 58.38334903343695]}}]}